{
  "links" : {
    "next" : "https://api.nasa.gov/neo/rest/v1/feed?start_date=2012-08-16&end_date=2012-08-16&detailed=true&api_key=t0TVs3DtDT2H8Oy2Zy8m2eVrNsAVKAexjcZXUckd",
    "prev" : "https://api.nasa.gov/neo/rest/v1/feed?start_date=2012-08-14&end_date=2012-08-14&detailed=true&api_key=t0TVs3DtDT2H8Oy2Zy8m2eVrNsAVKAexjcZXUckd",
    "self" : "https://api.nasa.gov/neo/rest/v1/feed?start_date=2012-08-15&end_date=2012-08-15&detailed=true&api_key=t0TVs3DtDT2H8Oy2Zy8m2eVrNsAVKAexjcZXUckd"
  },
  "element_count" : 7,
  "near_earth_objects" : {
    "2012-08-15" : [ {
      "links" : {
        "self" : "https://api.nasa.gov/neo/rest/v1/neo/3711785?api_key=t0TVs3DtDT2H8Oy2Zy8m2eVrNsAVKAexjcZXUckd"
      },
      "neo_reference_id" : "3711785",
      "name" : "(2015 DP155)",
      "nasa_jpl_url" : "http://ssd.jpl.nasa.gov/sbdb.cgi?sstr=3711785",
      "absolute_magnitude_h" : 21.6,
      "estimated_diameter" : {
        "kilometers" : {
          "estimated_diameter_min" : 0.1272198785,
          "estimated_diameter_max" : 0.2844722965
        },
        "meters" : {
          "estimated_diameter_min" : 127.2198785394,
          "estimated_diameter_max" : 284.4722965033
        },
        "miles" : {
          "estimated_diameter_min" : 0.0790507431,
          "estimated_diameter_max" : 0.1767628354
        },
        "feet" : {
          "estimated_diameter_min" : 417.3880663071,
          "estimated_diameter_max" : 933.3080892598
        }
      },
      "is_potentially_hazardous_asteroid" : true,
      "close_approach_data" : [ {
        "close_approach_date" : "2012-08-15",
        "epoch_date_close_approach" : 1345014000000,
        "relative_velocity" : {
          "kilometers_per_second" : "3.2659075177",
          "kilometers_per_hour" : "11757.2670638563",
          "miles_per_hour" : "7305.5085264278"
        },
        "miss_distance" : {
          "astronomical" : "0.3289325585",
          "lunar" : "127.9547653198",
          "kilometers" : "49207612",
          "miles" : "30576192"
        },
        "orbiting_body" : "Earth"
      } ],
      "orbital_data" : {
        "orbit_id" : "45",
        "orbit_determination_date" : "2017-04-06 08:35:29",
        "orbit_uncertainty" : "3",
        "minimum_orbit_intersection" : ".022444",
        "jupiter_tisserand_invariant" : "4.928",
        "epoch_osculation" : "2458000.5",
        "eccentricity" : ".2244749650908365",
        "semi_major_axis" : "1.316760352674753",
        "inclination" : "5.381584727615558",
        "ascending_node_longitude" : "89.46029949099319",
        "orbital_period" : "551.8976428737219",
        "perihelion_distance" : "1.02118061847509",
        "perihelion_argument" : "151.5820027277962",
        "aphelion_distance" : "1.612340086874416",
        "perihelion_time" : "2458262.363791738408",
        "mean_anomaly" : "189.1875925851764",
        "mean_motion" : ".6522948678046276",
        "equinox" : "J2000"
      }
    }, {
      "links" : {
        "self" : "https://api.nasa.gov/neo/rest/v1/neo/3612844?api_key=t0TVs3DtDT2H8Oy2Zy8m2eVrNsAVKAexjcZXUckd"
      },
      "neo_reference_id" : "3612844",
      "name" : "(2012 UB34)",
      "nasa_jpl_url" : "http://ssd.jpl.nasa.gov/sbdb.cgi?sstr=3612844",
      "absolute_magnitude_h" : 20.2,
      "estimated_diameter" : {
        "kilometers" : {
          "estimated_diameter_min" : 0.2424124811,
          "estimated_diameter_max" : 0.5420507863
        },
        "meters" : {
          "estimated_diameter_min" : 242.4124811008,
          "estimated_diameter_max" : 542.0507863358
        },
        "miles" : {
          "estimated_diameter_min" : 0.1506280858,
          "estimated_diameter_max" : 0.3368146392
        },
        "feet" : {
          "estimated_diameter_min" : 795.3165644948,
          "estimated_diameter_max" : 1778.3819018419
        }
      },
      "is_potentially_hazardous_asteroid" : false,
      "close_approach_data" : [ {
        "close_approach_date" : "2012-08-15",
        "epoch_date_close_approach" : 1345014000000,
        "relative_velocity" : {
          "kilometers_per_second" : "10.881085723",
          "kilometers_per_hour" : "39171.9086028",
          "miles_per_hour" : "24339.9006537787"
        },
        "miss_distance" : {
          "astronomical" : "0.2975115038",
          "lunar" : "115.7319793701",
          "kilometers" : "44507088",
          "miles" : "27655424"
        },
        "orbiting_body" : "Earth"
      } ],
      "orbital_data" : {
        "orbit_id" : "13",
        "orbit_determination_date" : "2017-04-06 08:48:24",
        "orbit_uncertainty" : "2",
        "minimum_orbit_intersection" : ".268714",
        "jupiter_tisserand_invariant" : "3.121",
        "epoch_osculation" : "2458000.5",
        "eccentricity" : ".5573934193723897",
        "semi_major_axis" : "2.624538586385607",
        "inclination" : "15.15808338189326",
        "ascending_node_longitude" : "106.6181701027495",
        "orbital_period" : "1553.022937760468",
        "perihelion_distance" : "1.161638049445356",
        "perihelion_argument" : "246.1614642722795",
        "aphelion_distance" : "4.087439123325859",
        "perihelion_time" : "2457732.834807460255",
        "mean_anomaly" : "62.04639157053481",
        "mean_motion" : ".2318059773921543",
        "equinox" : "J2000"
      }
    }, {
      "links" : {
        "self" : "https://api.nasa.gov/neo/rest/v1/neo/3763950?api_key=t0TVs3DtDT2H8Oy2Zy8m2eVrNsAVKAexjcZXUckd"
      },
      "neo_reference_id" : "3763950",
      "name" : "(2016 WF1)",
      "nasa_jpl_url" : "http://ssd.jpl.nasa.gov/sbdb.cgi?sstr=3763950",
      "absolute_magnitude_h" : 27.7,
      "estimated_diameter" : {
        "kilometers" : {
          "estimated_diameter_min" : 0.0076657557,
          "estimated_diameter_max" : 0.0171411509
        },
        "meters" : {
          "estimated_diameter_min" : 7.6657557353,
          "estimated_diameter_max" : 17.1411509231
        },
        "miles" : {
          "estimated_diameter_min" : 0.0047632783,
          "estimated_diameter_max" : 0.0106510141
        },
        "feet" : {
          "estimated_diameter_min" : 25.1501180466,
          "estimated_diameter_max" : 56.2373735944
        }
      },
      "is_potentially_hazardous_asteroid" : false,
      "close_approach_data" : [ {
        "close_approach_date" : "2012-08-15",
        "epoch_date_close_approach" : 1345014000000,
        "relative_velocity" : {
          "kilometers_per_second" : "16.3175017471",
          "kilometers_per_hour" : "58743.0062894822",
          "miles_per_hour" : "36500.6196580397"
        },
        "miss_distance" : {
          "astronomical" : "0.3146738527",
          "lunar" : "122.4081268311",
          "kilometers" : "47074536",
          "miles" : "29250762"
        },
        "orbiting_body" : "Earth"
      } ],
      "orbital_data" : {
        "orbit_id" : "4",
        "orbit_determination_date" : "2017-04-06 08:22:05",
        "orbit_uncertainty" : "7",
        "minimum_orbit_intersection" : ".00404359",
        "jupiter_tisserand_invariant" : "4.236",
        "epoch_osculation" : "2458000.5",
        "eccentricity" : ".4028264234421816",
        "semi_major_axis" : "1.617605459573433",
        "inclination" : "2.928490774793029",
        "ascending_node_longitude" : "53.90503442312024",
        "orbital_period" : "751.4625344700667",
        "perihelion_distance" : ".9659912377529203",
        "perihelion_argument" : "331.6950191573918",
        "aphelion_distance" : "2.269219681393944",
        "perihelion_time" : "2457685.412898780295",
        "mean_anomaly" : "150.9474541123809",
        "mean_motion" : ".4790657996727314",
        "equinox" : "J2000"
      }
    } ]
  }
}